ID,Address,Suburb,Price,Type,Date,Rooms,Bathroom,Car,LandSize,Age,Latitude,Longitude,train_station_id,distance_to_train_station,travel_min_to_CBD,over_priced?,crime_A_average,crime_B_average,crime_C_average,closest_primary_school,distance_to_closest_primary,primary_school_ranking,closest_secondary_school,distance_to_closest_secondary,secondary_school_ranking
ID876381027,84 Beachview Pde,POINT COOK,690000.0,h,15/07/2017,4,2.0,2.0,540.0,7.0,-37.90715,144.76527,46468,4436.02615048726,28.133333333333333,0,1609.3333333333333,6840.666666666667,525.6666666666666,St Mary of the Cross Catholic Primary School,192.794503952756,not ranked,Saltwater P-9 College,640.6500272667024,not ranked
ID125176104,2/27 Pakington St,KEW,610000.0,u,25/02/2017,2,1.0,1.0,745.0,51.0,-37.8024,145.0346,19904,2128.6150204389396,15.666666666666666,0,288.0,712.0,75.66666666666667,Kew Primary School,174.4237311116749,356,Trinity Grammar School Kew,872.2370558235878,not ranked
ID589109567,1/10 Scotia St,MOONEE PONDS,675000.0,u,8/10/2016,2,1.0,1.0,206.0,104.0,-37.7694,144.9059,20038,1237.2021808579332,22.0,0,278.0,489.0,65.0,Moonee Ponds West Primary School,306.3516809930373,not ranked,Lowther Hall Anglican Grammar School,1324.4126660234708,not ranked
ID406915922,3 Dumblane St,BALWYN NORTH,3300000.0,h,3/12/2016,5,4.0,2.0,760.0,4.0,-37.7907,145.0907,19896,3453.5471973147323,28.785714285714285,0,925.6666666666666,4701.333333333333,308.6666666666667,Boroondara Park Primary School,284.15008512206305,192,Balwyn High School,1461.532041706274,44
ID488629214,27/16 Goodwood St,RICHMOND,810000.0,t,18/06/2016,2,1.0,1.0,94.0,109.0,-37.8201,144.9927,22247,495.43526366866195,10.0,0,824.6666666666666,1890.3333333333333,159.33333333333334,Richmond West Primary School,768.499522675334,452,Lynall Hall Community School,932.1649908315966,559
ID772507797,5 Viewbank Dr,KEILOR EAST,823000.0,h,27/11/2016,3,1.0,2.0,538.0,39.0,-37.7486,144.8778,20037,3478.7901773035533,24.0,0,555.6666666666666,1129.0,160.66666666666666,St John Bosco's School,1131.1588782498509,not ranked,St Bernard's College,483.40723139943606,130
ID865064489,7 Bank St,RICHMOND,1600000.0,h,3/12/2016,3,2.0,1.0,115.0,18.0,-37.8163,144.9984,19978,631.7332254914506,9.125,1,824.6666666666666,1890.3333333333333,159.33333333333334,Richmond West Primary School,378.84984791836877,452,Lynall Hall Community School,339.749616481508,559
ID877930681,11 Brislington St,SUNSHINE,679500.0,h,26/07/2016,3,1.0,1.0,351.0,17.0,-37.7843,144.8392,22241,729.1710787408464,15.85,0,1363.6666666666667,6287.666666666667,564.3333333333334,Sunshine Harvester Primary School,590.6185165956581,not ranked,Caroline Chisholm Catholic College,974.490472572934,not ranked
ID746461102,4/799 Burwood Rd,HAWTHORN EAST,420000.0,u,4/03/2017,2,1.0,1.0,0.0,49.0,-37.8245,145.0527,19853,575.3364012749241,19.09090909090909,0,1253.6666666666667,7401.333333333333,484.6666666666667,Auburn Primary School,508.77356434583965,344,SEDA College (Victoria),701.1908652075399,not ranked
ID468335471,2 Quarry Cct,COBURG,1131000.0,h,8/10/2016,4,2.0,2.0,494.0,18.0,-37.7359,144.9711,19964,773.7777737554754,34.0,0,1071.3333333333333,5783.666666666667,419.6666666666667,Australian International Academy of Education,440.7631333915912,not ranked,Australian International Academy of Education,440.7631333915912,not ranked
ID131780820,10 Silverdale Rd,EAGLEMONT,2270000.0,h,17/06/2017,3,1.0,2.0,1143.0,13.0,-37.76774,145.05303,19934,469.3855090793688,29.0,0,1666.0,9333.666666666666,523.0,Ivanhoe Girls' Grammar School,619.3846346957149,38,Ivanhoe Girls' Grammar School,619.3846346957149,49
ID852053245,43 Fernhurst Gr,KEW,1690000.0,h,4/03/2017,4,3.0,1.0,358.0,49.0,-37.8034,145.0283,19905,2105.413758488482,13.952380952380953,0,288.0,712.0,75.66666666666667,Kew Primary School,448.12232621635275,356,Trinity Grammar School Kew,987.2606246882547,not ranked
ID719184746,27 MacPherson St,FOOTSCRAY,882000.0,h,29/04/2017,2,1.0,0.0,172.0,119.0,-37.7936,144.8905,20024,994.9258039766083,17.4,0,2047.6666666666667,9171.0,742.3333333333334,St John's School,526.2869696573022,489,Footscray City College,418.02068673316694,166
ID502764617,10/117 Albert St,SEDDON,355000.0,u,24/09/2016,2,1.0,1.0,0.0,44.0,-37.8066,144.8971,19997,295.7422280690502,10.357142857142858,0,824.6666666666666,1890.3333333333333,159.33333333333334,Footscray City Primary School,278.19869318894257,97,Gilmore College For Girls,857.5043072060164,387
ID905640979,4 Marriage Rd,BRIGHTON EAST,1850000.0,h,3/09/2016,4,2.0,2.0,617.0,79.0,-37.9187,145.007,19951,1020.1193305724935,26.5,0,2744.3333333333335,10289.666666666666,780.0,Brighton Primary School,890.1320593413931,342,Brighton Secondary College,1076.505423618921,213
ID195767270,17/393 Toorak Rd,SOUTH YARRA,400000.0,u,14/05/2016,1,1.0,1.0,1424.0,49.0,-37.8402,145.0029,19947,493.29972458896185,16.214285714285715,0,1100.6666666666667,3636.3333333333335,457.3333333333333,Toorak Primary School,821.1217382706576,83,Melbourne High School,765.2238300854178,2
ID246885082,21 Ryder St,NIDDRIE,810000.0,h,8/04/2017,3,2.0,1.0,297.0,64.0,-37.738,144.8865,20036,3200.1664551220433,27.0,0,84.33333333333333,293.3333333333333,23.0,St John Bosco's School,667.8849135092289,not ranked,Rosehill Secondary College,966.5240034397349,239
ID610020001,6 Irene Pl,PRAHRAN,1530000.0,h,18/03/2017,3,1.0,0.0,231.0,49.0,-37.8498,145.0039,19947,600.1011994761135,16.214285714285715,0,705.3333333333334,5479.666666666667,335.0,Our Lady of Lourdes School,571.0131001182335,67,Loreto Mandeville Hall,982.6106344529866,15
ID671634164,1/136 Wright St,SUNSHINE,260000.0,u,3/09/2016,2,1.0,1.0,79.0,59.0,-37.7952,144.8262,20021,946.2307171248312,24.555555555555557,0,1363.6666666666667,6287.666666666667,564.3333333333334,Sunshine Primary School,645.7661067760896,not ranked,Sunshine College,597.7404579815063,233
ID137139876,14/410 Waverley Rd,MALVERN EAST,922000.0,t,10/09/2016,3,2.0,2.0,0.0,19.0,-37.8782,145.0649,19920,1053.618328141567,23.375,0,610.0,1743.6666666666667,228.0,Solway Primary School,889.163697662931,278,Korowa Anglican Girls' School,2070.814855676548,13
ID634532745,150 Gooch St,THORNBURY,1240000.0,h,3/06/2017,3,1.0,1.0,435.0,49.0,-37.75915,145.01043,20014,1139.0023234036153,25.3,0,2532.3333333333335,5455.0,713.0,Wales Street Primary School,297.94006683482263,175,Thornbury High School,1334.2190422577482,209
ID512782871,5 Alice St,CHELTENHAM,1100000.0,h,23/09/2017,3,2.0,2.0,603.0,15.0,-37.97462,145.07906,19865,1461.7805720130439,44.6875,0,1288.3333333333333,4242.333333333333,480.0,Mentone Park Primary School,683.7560671671769,not ranked,Kilbreda College,1580.453252174016,145
ID722416419,3A Homebush Ct,RINGWOOD EAST,777000.0,h,22/07/2017,3,2.0,2.0,502.0,42.0,-37.82268,145.25058,19871,821.6444344174514,41.083333333333336,0,1609.3333333333333,6840.666666666667,525.6666666666666,Eastwood Primary School,640.499202163099,not ranked,Tintern Grammar,961.6745986074683,100
ID954498381,92 Madden Gr,BURNLEY,881000.0,h,16/04/2016,2,1.0,1.0,172.0,119.0,-37.8283,145.012,19906,399.3935496641588,11.904761904761905,0,97.66666666666667,243.0,33.0,Hawthorn West Primary School,1070.1296336487885,125,Melbourne Girls College,676.7279828299819,not ranked
ID636612901,17 Payne St,GLADSTONE PARK,586000.0,h,23/09/2017,3,1.0,1.0,534.0,59.0,-37.68641,144.88487,20031,2896.523794832766,38.0,0,663.0,4010.0,377.0,Gladstone Park Primary School,171.39926527647955,not ranked,Gladstone Park Secondary College,586.5323611853896,not ranked
ID562537976,16 Sandover Dr,ROXBURGH PARK,570000.0,h,3/09/2017,4,2.0,2.0,504.0,19.0,-37.61419,144.93448,20029,1571.595835991424,35.0,1,394.3333333333333,1153.6666666666667,165.33333333333334,Craigieburn South Primary School,617.2050862284804,not ranked,Craigieburn Secondary College,627.8715767337361,497
ID524213065,603/29 Nicholson St,BRUNSWICK EAST,615000.0,u,29/07/2017,2,1.0,1.0,0.0,11.0,-37.77887,144.97797,20017,1324.87741726192,19.3,0,817.6666666666666,1779.6666666666667,181.0,Our Lady Help of Christians School,281.5883238769302,108,Fitzroy High School,1073.1549899646511,248
ID511834101,7 Clevedon Ct,KEW,1950000.0,h,8/10/2016,4,2.0,2.0,400.0,19.0,-37.8147,145.0438,19903,875.5938052547849,17.904761904761905,0,271.6666666666667,771.6666666666666,74.0,Carey Baptist Grammar School,353.37954409830604,23,Carey Baptist Grammar School,353.37954409830604,68
ID745524023,63 Hawkhurst St,YARRAVILLE,1050000.0,h,12/11/2016,3,1.0,2.0,442.0,79.0,-37.8201,144.872,19996,1646.445263748255,11.357142857142858,0,703.6666666666666,1502.0,135.66666666666666,Wembley Primary School,237.58816115354531,222,Emmanuel College,2902.429507312586,180
ID645271228,2/20 Albenca St,MENTONE,881000.0,t,19/08/2017,3,2.0,1.0,332.0,39.0,-37.98001,145.07457,19865,850.5898391782027,44.6875,0,50.333333333333336,68.0,12.0,St Patrick's School,553.8455743780098,346,Kilbreda College,903.7374456292177,145
ID169669604,25 Fyfe St,RESERVOIR,575000.0,t,27/05/2017,2,2.0,1.0,151.0,4.0,-37.70426,145.01203999999996,20009,461.8956822112462,35.2,0,885.0,1901.0,227.66666666666666,Maharishi School of the Age of Enlightenment,654.2372584850295,not ranked,William Ruthven Secondary College,1175.0083989717405,not ranked
ID526161701,43 Stawell St,WERRIBEE,830000.0,h,17/06/2017,3,2.0,2.0,1025.0,49.0,-37.90188,144.65138000000005,19921,899.5654773410662,35.142857142857146,0,98.66666666666667,190.66666666666666,19.0,St Andrew's School,98.00642374761948,not ranked,Wyndham Central Secondary College,1457.5737341718195,not ranked
ID383276614,126 The Parade,ASCOT VALE,1010000.0,h,19/11/2016,2,1.0,1.0,325.0,49.0,-37.7722,144.9117,20039,955.2828185164856,20.0,0,2489.6666666666665,11817.333333333334,1268.6666666666667,St Mary's School,186.02148744176722,159,Lowther Hall Anglican Grammar School,1398.3121087609645,not ranked
